ORBCOMM FM103           
1 40091U 14040F   26009.60890492  .00000841  00000+0  21526-3 0  9999
2 40091  47.0047 122.6654 0001669 175.3131 184.7770 14.58591908594234
ORBCOMM FM114           
1 41179U 15081A   26009.41976849  .00000759  00000+0  19775-3 0  9994
2 41179  47.0058  32.5113 0002621 215.6024 144.4687 14.58613345534572
ORBCOMM FM119           
1 41180U 15081B   26009.48529453  .00000700  00000+0  18541-3 0  9994
2 41180  47.0011 301.5613 0001712 281.1938  78.8755 14.58562091535836
ORBCOMM FM105           
1 41181U 15081C   26009.57313235  .00000349  00000+0  14263-3 0  9990
2 41181  47.0027 326.2805 0001460 195.1225 164.9612 14.45435853530604
ORBCOMM FM110           
1 41182U 15081D   26009.34061441  .00001058  00000+0  26119-3 0  9996
2 41182  47.0030  32.3735 0001701  39.9624 320.1386 14.58658199534435
ORBCOMM FM118           
1 41183U 15081E   26009.37527981  .00000929  00000+0  23377-3 0  9995
2 41183  47.0050  32.5146 0002673 356.5163   3.5703 14.58642444534544
ORBCOMM FM112           
1 41184U 15081F   26009.51488455  .00000861  00000+0  21939-3 0  9991
2 41184  46.9998 300.3795 0001672 225.5375 134.5374 14.58645421535782
ORBCOMM FM113           
1 41185U 15081G   26009.49220975  .00001058  00000+0  26112-3 0  9997
2 41185  47.0016 300.8473 0001536 239.4664 120.6071 14.58643860535761
